STARLINK-36673          
1 67660U 26022N   26044.25002315 -.01736290  00000+0 -85360-2 0  9994
2 67660  97.2815  77.0187 0001393  94.9526 186.6680 15.85163094  2964
STARLINK-36674          
1 67661U 26022P   26044.25002315 -.01731959  00000+0 -84456-2 0  9997
2 67661  97.2815  77.0209 0001267  98.6204 187.0593 15.85324552  2960
STARLINK-36700          
1 67662U 26022Q   26044.25002315 -.01724116  00000+0 -82288-2 0  9996
2 67662  97.2811  77.0248 0001173  90.5324 205.5275 15.85752366  2961
STARLINK-36675          
1 67663U 26022R   26044.25002315 -.01725329  00000+0 -83207-2 0  9996
2 67663  97.2812  77.0225 0001352  82.7784 208.1468 15.85538461  2961
STARLINK-36404          
1 67664U 26022S   26044.25002315 -.01716375  00000+0 -81012-2 0  9990
2 67664  97.2803  77.0260 0001200  86.1780 215.1063 15.85965366  2931
STARLINK-36399          
1 67665U 26022T   26044.25002315 -.01711649  00000+0 -80169-2 0  9992
2 67665  97.2802  77.0284 0001224  85.9611 219.1199 15.86113878  2931
STARLINK-36365          
1 67666U 26022U   26044.25002315 -.01708429  00000+0 -79029-2 0  9998
2 67666  97.2801  77.0311 0001220  68.6106 242.3235 15.86361873  2967
STARLINK-36622          
1 67667U 26022V   26044.25002315 -.01706687  00000+0 -77925-2 0  9996
2 67667  97.2801  77.0332 0001177  91.3261 225.7584 15.86624833  2967
STARLINK-36625          
1 67668U 26022W   26044.25002315 -.01705000  00000+0 -76740-2 0  9999
2 67668  97.2796  77.0365 0001226  88.6267 235.1424 15.86912063  2960
STARLINK-36639          
1 67669U 26022X   26044.25002315 -.01703203  00000+0 -75622-2 0  9991
2 67669  97.2796  77.0396 0001180  83.3514 246.7933 15.87185186  2963
STARLINK-36596          
1 67670U 26022Y   26044.25002315 -.01698098  00000+0 -74538-2 0  9993
2 67670  97.2789  77.0411 0001202  86.4679 248.9549 15.87406452  2965
STARLINK-36297          
1 67671U 26022Z   26044.25002315 -.01693819  00000+0 -72988-2 0  9997
2 67671  97.2786  77.0448 0001262  75.3299 268.8821 15.87770018  2960
