CCSDS_OMM_VERS = 2.0
CREATION_DATE  = 
ORIGINATOR     = 

OBJECT_NAME    = STARLINK-36673
OBJECT_ID      = 2026-022N
CENTER_NAME    = EARTH
REF_FRAME      = TEME
TIME_SYSTEM    = UTC
MEAN_ELEMENT_THEORY = SGP/SGP4

EPOCH          = 2026-02-13T06:00:02.000160
MEAN_MOTION    = 15.85163094
ECCENTRICITY   = .00013939
INCLINATION    = 97.2815
RA_OF_ASC_NODE = 77.0187
ARG_OF_PERICENTER = 94.9526
MEAN_ANOMALY   = 186.6680

EPHEMERIS_TYPE = 0
CLASSIFICATION_TYPE = U
NORAD_CAT_ID   = 67660
ELEMENT_SET_NO = 999
REV_AT_EPOCH   = 296
BSTAR          = -.85359702E-2
MEAN_MOTION_DOT = -.173629E-1
MEAN_MOTION_DDOT = 0

CCSDS_OMM_VERS = 2.0
CREATION_DATE  = 
ORIGINATOR     = 

OBJECT_NAME    = STARLINK-36674
OBJECT_ID      = 2026-022P
CENTER_NAME    = EARTH
REF_FRAME      = TEME
TIME_SYSTEM    = UTC
MEAN_ELEMENT_THEORY = SGP/SGP4

EPOCH          = 2026-02-13T06:00:02.000160
MEAN_MOTION    = 15.85324552
ECCENTRICITY   = .00012673
INCLINATION    = 97.2815
RA_OF_ASC_NODE = 77.0209
ARG_OF_PERICENTER = 98.6204
MEAN_ANOMALY   = 187.0593

EPHEMERIS_TYPE = 0
CLASSIFICATION_TYPE = U
NORAD_CAT_ID   = 67661
ELEMENT_SET_NO = 999
REV_AT_EPOCH   = 296
BSTAR          = -.84456076E-2
MEAN_MOTION_DOT = -.1731959E-1
MEAN_MOTION_DDOT = 0

CCSDS_OMM_VERS = 2.0
CREATION_DATE  = 
ORIGINATOR     = 

OBJECT_NAME    = STARLINK-36700
OBJECT_ID      = 2026-022Q
CENTER_NAME    = EARTH
REF_FRAME      = TEME
TIME_SYSTEM    = UTC
MEAN_ELEMENT_THEORY = SGP/SGP4

EPOCH          = 2026-02-13T06:00:02.000160
MEAN_MOTION    = 15.85752366
ECCENTRICITY   = .00011738
INCLINATION    = 97.2811
RA_OF_ASC_NODE = 77.0248
ARG_OF_PERICENTER = 90.5324
MEAN_ANOMALY   = 205.5275

EPHEMERIS_TYPE = 0
CLASSIFICATION_TYPE = U
NORAD_CAT_ID   = 67662
ELEMENT_SET_NO = 999
REV_AT_EPOCH   = 296
BSTAR          = -.82287816E-2
MEAN_MOTION_DOT = -.1724116E-1
MEAN_MOTION_DDOT = 0

CCSDS_OMM_VERS = 2.0
CREATION_DATE  = 
ORIGINATOR     = 

OBJECT_NAME    = STARLINK-36675
OBJECT_ID      = 2026-022R
CENTER_NAME    = EARTH
REF_FRAME      = TEME
TIME_SYSTEM    = UTC
MEAN_ELEMENT_THEORY = SGP/SGP4

EPOCH          = 2026-02-13T06:00:02.000160
MEAN_MOTION    = 15.85538461
ECCENTRICITY   = .0001352
INCLINATION    = 97.2812
RA_OF_ASC_NODE = 77.0225
ARG_OF_PERICENTER = 82.7784
MEAN_ANOMALY   = 208.1468

EPHEMERIS_TYPE = 0
CLASSIFICATION_TYPE = U
NORAD_CAT_ID   = 67663
ELEMENT_SET_NO = 999
REV_AT_EPOCH   = 296
BSTAR          = -.83207429E-2
MEAN_MOTION_DOT = -.1725329E-1
MEAN_MOTION_DDOT = 0

CCSDS_OMM_VERS = 2.0
CREATION_DATE  = 
ORIGINATOR     = 

OBJECT_NAME    = STARLINK-36404
OBJECT_ID      = 2026-022S
CENTER_NAME    = EARTH
REF_FRAME      = TEME
TIME_SYSTEM    = UTC
MEAN_ELEMENT_THEORY = SGP/SGP4

EPOCH          = 2026-02-13T06:00:02.000160
MEAN_MOTION    = 15.85965366
ECCENTRICITY   = .00012002
INCLINATION    = 97.2803
RA_OF_ASC_NODE = 77.0260
ARG_OF_PERICENTER = 86.1780
MEAN_ANOMALY   = 215.1063

EPHEMERIS_TYPE = 0
CLASSIFICATION_TYPE = U
NORAD_CAT_ID   = 67664
ELEMENT_SET_NO = 999
REV_AT_EPOCH   = 293
BSTAR          = -.81012475E-2
MEAN_MOTION_DOT = -.1716375E-1
MEAN_MOTION_DDOT = 0

CCSDS_OMM_VERS = 2.0
CREATION_DATE  = 
ORIGINATOR     = 

OBJECT_NAME    = STARLINK-36399
OBJECT_ID      = 2026-022T
CENTER_NAME    = EARTH
REF_FRAME      = TEME
TIME_SYSTEM    = UTC
MEAN_ELEMENT_THEORY = SGP/SGP4

EPOCH          = 2026-02-13T06:00:02.000160
MEAN_MOTION    = 15.86113878
ECCENTRICITY   = .00012241
INCLINATION    = 97.2802
RA_OF_ASC_NODE = 77.0284
ARG_OF_PERICENTER = 85.9611
MEAN_ANOMALY   = 219.1199

EPHEMERIS_TYPE = 0
CLASSIFICATION_TYPE = U
NORAD_CAT_ID   = 67665
ELEMENT_SET_NO = 999
REV_AT_EPOCH   = 293
BSTAR          = -.80169076E-2
MEAN_MOTION_DOT = -.1711649E-1
MEAN_MOTION_DDOT = 0

CCSDS_OMM_VERS = 2.0
CREATION_DATE  = 
ORIGINATOR     = 

OBJECT_NAME    = STARLINK-36365
OBJECT_ID      = 2026-022U
CENTER_NAME    = EARTH
REF_FRAME      = TEME
TIME_SYSTEM    = UTC
MEAN_ELEMENT_THEORY = SGP/SGP4

EPOCH          = 2026-02-13T06:00:02.000160
MEAN_MOTION    = 15.86361873
ECCENTRICITY   = .000122
INCLINATION    = 97.2801
RA_OF_ASC_NODE = 77.0311
ARG_OF_PERICENTER = 68.6106
MEAN_ANOMALY   = 242.3235

EPHEMERIS_TYPE = 0
CLASSIFICATION_TYPE = U
NORAD_CAT_ID   = 67666
ELEMENT_SET_NO = 999
REV_AT_EPOCH   = 296
BSTAR          = -.79029E-2
MEAN_MOTION_DOT = -.1708429E-1
MEAN_MOTION_DDOT = 0

CCSDS_OMM_VERS = 2.0
CREATION_DATE  = 
ORIGINATOR     = 

OBJECT_NAME    = STARLINK-36622
OBJECT_ID      = 2026-022V
CENTER_NAME    = EARTH
REF_FRAME      = TEME
TIME_SYSTEM    = UTC
MEAN_ELEMENT_THEORY = SGP/SGP4

EPOCH          = 2026-02-13T06:00:02.000160
MEAN_MOTION    = 15.86624833
ECCENTRICITY   = .00011772
INCLINATION    = 97.2801
RA_OF_ASC_NODE = 77.0332
ARG_OF_PERICENTER = 91.3261
MEAN_ANOMALY   = 225.7584

EPHEMERIS_TYPE = 0
CLASSIFICATION_TYPE = U
NORAD_CAT_ID   = 67667
ELEMENT_SET_NO = 999
REV_AT_EPOCH   = 296
BSTAR          = -.77925076E-2
MEAN_MOTION_DOT = -.1706687E-1
MEAN_MOTION_DDOT = 0

CCSDS_OMM_VERS = 2.0
CREATION_DATE  = 
ORIGINATOR     = 

OBJECT_NAME    = STARLINK-36625
OBJECT_ID      = 2026-022W
CENTER_NAME    = EARTH
REF_FRAME      = TEME
TIME_SYSTEM    = UTC
MEAN_ELEMENT_THEORY = SGP/SGP4

EPOCH          = 2026-02-13T06:00:02.000160
MEAN_MOTION    = 15.86912063
ECCENTRICITY   = .0001226
INCLINATION    = 97.2796
RA_OF_ASC_NODE = 77.0365
ARG_OF_PERICENTER = 88.6267
MEAN_ANOMALY   = 235.1424

EPHEMERIS_TYPE = 0
CLASSIFICATION_TYPE = U
NORAD_CAT_ID   = 67668
ELEMENT_SET_NO = 999
REV_AT_EPOCH   = 296
BSTAR          = -.76740074E-2
MEAN_MOTION_DOT = -.1705E-1
MEAN_MOTION_DDOT = 0

CCSDS_OMM_VERS = 2.0
CREATION_DATE  = 
ORIGINATOR     = 

OBJECT_NAME    = STARLINK-36639
OBJECT_ID      = 2026-022X
CENTER_NAME    = EARTH
REF_FRAME      = TEME
TIME_SYSTEM    = UTC
MEAN_ELEMENT_THEORY = SGP/SGP4

EPOCH          = 2026-02-13T06:00:02.000160
MEAN_MOTION    = 15.87185186
ECCENTRICITY   = .00011806
INCLINATION    = 97.2796
RA_OF_ASC_NODE = 77.0396
ARG_OF_PERICENTER = 83.3514
MEAN_ANOMALY   = 246.7933

EPHEMERIS_TYPE = 0
CLASSIFICATION_TYPE = U
NORAD_CAT_ID   = 67669
ELEMENT_SET_NO = 999
REV_AT_EPOCH   = 296
BSTAR          = -.75621512E-2
MEAN_MOTION_DOT = -.1703203E-1
MEAN_MOTION_DDOT = 0

CCSDS_OMM_VERS = 2.0
CREATION_DATE  = 
ORIGINATOR     = 

OBJECT_NAME    = STARLINK-36596
OBJECT_ID      = 2026-022Y
CENTER_NAME    = EARTH
REF_FRAME      = TEME
TIME_SYSTEM    = UTC
MEAN_ELEMENT_THEORY = SGP/SGP4

EPOCH          = 2026-02-13T06:00:02.000160
MEAN_MOTION    = 15.87406452
ECCENTRICITY   = .00012025
INCLINATION    = 97.2789
RA_OF_ASC_NODE = 77.0411
ARG_OF_PERICENTER = 86.4679
MEAN_ANOMALY   = 248.9549

EPHEMERIS_TYPE = 0
CLASSIFICATION_TYPE = U
NORAD_CAT_ID   = 67670
ELEMENT_SET_NO = 999
REV_AT_EPOCH   = 296
BSTAR          = -.74537609E-2
MEAN_MOTION_DOT = -.1698098E-1
MEAN_MOTION_DDOT = 0

CCSDS_OMM_VERS = 2.0
CREATION_DATE  = 
ORIGINATOR     = 

OBJECT_NAME    = STARLINK-36297
OBJECT_ID      = 2026-022Z
CENTER_NAME    = EARTH
REF_FRAME      = TEME
TIME_SYSTEM    = UTC
MEAN_ELEMENT_THEORY = SGP/SGP4

EPOCH          = 2026-02-13T06:00:02.000160
MEAN_MOTION    = 15.87770018
ECCENTRICITY   = .00012628
INCLINATION    = 97.2786
RA_OF_ASC_NODE = 77.0448
ARG_OF_PERICENTER = 75.3299
MEAN_ANOMALY   = 268.8821

EPHEMERIS_TYPE = 0
CLASSIFICATION_TYPE = U
NORAD_CAT_ID   = 67671
ELEMENT_SET_NO = 999
REV_AT_EPOCH   = 296
BSTAR          = -.729876E-2
MEAN_MOTION_DOT = -.1693819E-1
MEAN_MOTION_DDOT = 0

